STARLINK-3326           
1 50844U 22001AT  26068.59877230 -.00001765  00000+0 -92836-4 0  9991
2 50844  53.2179 179.5302 0000966  98.2232 261.8869 15.08843961230251
STARLINK-5895           
1 55964U 23037BC  26068.93316413  .00010921  00000+0  72850-3 0  9993
2 55964  69.9972 260.0280 0004986 264.4993  95.5602 15.07243555164606
